{
  "norad_id": 60138,
  "name": "STARLINK-32025",
  "history": [
    {
      "epoch": "2026-03-28T17:19:14.052288Z",
      "apogee_km": 476.09005698073906,
      "perigee_km": 474.3915158301561,
      "latitude_deg": -3.123630030499986e-05,
      "longitude_deg": 145.31645913453792,
      "height_km": 476.19928184409764,
      "semi_major_axis_km": 6853.377786405447,
      "eccentricity": 0.00012392,
      "inclination_deg": 53.1609,
      "raan_deg": 231.2631,
      "arg_perigee_deg": 94.07,
      "mean_anomaly_deg": 266.0442,
      "mean_motion_rev_day": 15.30191387
    },
    {
      "epoch": "2026-03-29T02:43:33.985056Z",
      "apogee_km": 476.100983898973,
      "perigee_km": 474.4328653837156,
      "latitude_deg": -1.0899047561278175e-05,
      "longitude_deg": 2.027049361297029,
      "height_km": 476.1881931864226,
      "semi_major_axis_km": 6853.403924641344,
      "eccentricity": 0.0001217,
      "inclination_deg": 53.1609,
      "raan_deg": 229.443,
      "arg_perigee_deg": 91.5822,
      "mean_anomaly_deg": 268.5318,
      "mean_motion_rev_day": 15.30182633
    },
    {
      "epoch": "2026-03-29T02:43:33.985920Z",
      "apogee_km": 476.1008468308937,
      "perigee_km": 474.433002451794,
      "latitude_deg": 7.147104369823297e-05,
      "longitude_deg": 2.0271071185981633,
      "height_km": 476.1881775012581,
      "semi_major_axis_km": 6853.403924641344,
      "eccentricity": 0.00012168,
      "inclination_deg": 53.1609,
      "raan_deg": 229.443,
      "arg_perigee_deg": 91.5822,
      "mean_anomaly_deg": 268.5319,
      "mean_motion_rev_day": 15.30182633
    }
  ]
}